GPS BIIA-23 (PRN 18)    
1 22877U 93068A   19081.38828062 -.00000032  00000-0  00000+0 0  9993
2 22877  54.6251  72.1005 0148805  78.7831 319.0338  2.00557923186135
GPS BIIR-2  (PRN 13)    
1 24876U 97035A   19081.23293596 -.00000001  00000-0  00000+0 0  9990
2 24876  55.4650 201.8694 0034294  76.3239 284.0329  2.00564574158720
GPS BIIR-3  (PRN 11)    
1 25933U 99055A   19081.57934514 -.00000069  00000-0  00000-0 0  9993
2 25933  52.0746  49.5841 0163094 107.3618  70.0836  2.00560801142551
GPS BIIR-4  (PRN 20)    
1 26360U 00025A   19081.24442751  .00000017  00000-0  00000+0 0  9999
2 26360  53.2987 128.0629 0042048 134.7654 207.2811  2.00562514138232
GPS BIIR-5  (PRN 28)    
1 26407U 00040A   19081.60633215 -.00000053  00000-0  00000+0 0  9996
2 26407  56.3144 319.9872 0194130 275.7583 301.9875  2.00560666136923
GPS BIIR-6  (PRN 14)    
1 26605U 00071A   19081.38313118 -.00000000  00000-0  00000+0 0  9994
2 26605  55.0390 199.3458 0105371 248.8994  79.1198  2.00562333134516
GPS BIIR-8  (PRN 16)    
1 27663U 03005A   19081.47849328 -.00000052  00000-0  00000-0 0  9994
2 27663  56.3757 319.7632 0106584  30.7428 211.6596  2.00578976118282
GPS BIIR-9  (PRN 21)    
1 27704U 03010A   19080.95474029 -.00000030  00000-0  00000+0 0  9995
2 27704  54.2991  71.6153 0249698 276.1269 277.0220  2.00551761117068
GPS BIIR-10 (PRN 22)    
1 28129U 03058A   19081.42366114  .00000015  00000-0  00000-0 0  9990
2 28129  53.1107 130.8571 0075028 279.6966  79.5369  2.00577563111763
GPS BIIR-11 (PRN 19)    
1 28190U 04009A   19081.75973201 -.00000088  00000-0  00000-0 0  9993
2 28190  56.2537  20.5368 0092444  77.6832 163.2643  2.00569310109966
GPS BIIR-12 (PRN 23)    
1 28361U 04023A   19080.09436963 -.00000009  00000-0  00000+0 0  9996
2 28361  54.0502 193.8553 0131366 229.7380 161.2664  2.00569375108016
GPS BIIR-13 (PRN 02)    
1 28474U 04045A   19081.71386306 -.00000035  00000-0  00000-0 0  9990
2 28474  54.6597  71.3035 0191429 259.3352 224.6535  2.00563467105418
GPS BIIRM-1 (PRN 17)    
1 28874U 05038A   19081.76018314 -.00000089  00000-0  00000-0 0  9992
2 28874  56.3808  17.8793 0131555 261.8575   2.0598  2.00559341 98819
GPS BIIRM-2 (PRN 31)    
1 29486U 06042A   19081.26267083 -.00000003  00000-0  00000+0 0  9997
2 29486  55.0399 256.5210 0092461 358.3592 185.5026  2.00574156 91513
GPS BIIRM-3 (PRN 12)    
1 29601U 06052A   19081.45130954 -.00000050  00000-0  00000-0 0  9997
2 29601  56.3548 318.6806 0073798  59.3416 301.4361  2.00563314 90387
GPS BIIRM-4 (PRN 15)    
1 32260U 07047A   19081.76261851  .00000001  00000-0  00000+0 0  9996
2 32260  53.1730 189.5558 0110898  43.1645 317.6998  2.00565017 83814
GPS BIIRM-5 (PRN 29)    
1 32384U 07062A   19081.89584377 -.00000089  00000-0  00000-0 0  9993
2 32384  56.4629  18.5062 0005942  81.3235 153.7371  2.00578581 82539
GPS BIIRM-6 (PRN 07)    
1 32711U 08012A   19080.67224093 -.00000003  00000-0  00000+0 0  9999
2 32711  54.7784 255.7553 0124952 219.0361 140.0249  2.00571754 80715
GPS BIIRM-8 (PRN 05)    
1 35752U 09043A   19081.62896442  .00000016  00000-0  00000-0 0  9995
2 35752  54.3979 133.4098 0054091  38.5790 317.6011  2.00565970 70336
GPS BIIF-1  (PRN 25)    
1 36585U 10022A   19081.74221351 -.00000050  00000-0  00000-0 0  9992
2 36585  55.6363 315.0308 0081775  48.9885 133.0736  2.00556200 64572
GPS BIIF-2  (PRN 01)    
1 37753U 11036A   19081.60903841 -.00000026  00000-0  00000-0 0  9995
2 37753  55.8567  75.1675 0083972  37.9292 133.4760  2.00565696 56256
GPS BIIF-3  (PRN 24)    
1 38833U 12053A   19081.35688327 -.00000005  00000-0  00000-0 0  9993
2 38833  53.8122 252.0134 0081254  33.2349 327.2339  2.00557246 46526
GPS BIIF-4  (PRN 27)    
1 39166U 13023A   19080.72017211 -.00000089  00000-0  00000+0 0  9990
2 39166  56.0661  14.7249 0067860  23.9300 336.3792  2.00568122 42838
GPS BIIF-5  (PRN 30)    
1 39533U 14008A   19081.21434915 -.00000006  00000-0  00000+0 0  9990
2 39533  53.9464 257.4045 0038151 190.5725 169.3168  2.00570322 37207
GPS BIIF-6  (PRN 06)    
1 39741U 14026A   19081.00275436 -.00000022  00000-0  00000+0 0  9997
2 39741  55.8369  74.7170 0018268 291.1421  68.6707  2.00578277 35485
GPS BIIF-7  (PRN 09)    
1 40105U 14045A   19081.58858119  .00000001  00000-0  00000-0 0  9999
2 40105  54.5764 194.0513 0011506 101.6902 258.4308  2.00558623 33083
GPS BIIF-8  (PRN 03)    
1 40294U 14068A   19081.45455591  .00000020  00000-0  00000-0 0  9997
2 40294  55.1496 134.9027 0018171  27.4294 332.7484  2.00577038 32180
GPS BIIF-9  (PRN 26)    
1 40534U 15013A   19081.10197085 -.00000045  00000-0  00000+0 0  9995
2 40534  54.5673 313.4892 0036872   4.5408 355.5429  2.00575161 29220
GPS BIIF-10  (PRN 08)   
1 40730U 15033A   19081.25616670 -.00000091  00000-0  00000-0 0  9999
2 40730  55.5923  14.0831 0044390 340.0175  19.8080  2.00559279 26982
GPS BIIF-11  (PRN 10)   
1 41019U 15062A   19081.80574277  .00000016  00000-0  00000-0 0  9995
2 41019  55.1519 134.7014 0045275 206.8541 152.9906  2.00564638 24813
GPS BIIF-12  (PRN 32)   
1 41328U 16007A   19081.40346815  .00000001  00000-0  00000-0 0  9993
2 41328  54.8217 194.4248 0028779 215.9433 143.8534  2.00552422 22867
